[{"OBJECT_NAME":"STARLINK-32506","OBJECT_ID":"2024-225E","EPOCH":"2026-03-09T16:00:03.000096","MEAN_MOTION":14.98307443,"ECCENTRICITY":0.00032524,"INCLINATION":70.0016,"RA_OF_ASC_NODE":164.695,"ARG_OF_PERICENTER":276.331,"MEAN_ANOMALY":207.3346,"EPHEMERIS_TYPE":0,"CLASSIFICATION_TYPE":"U","NORAD_CAT_ID":62167,"ELEMENT_SET_NO":999,"REV_AT_EPOCH":567,"BSTAR":0.003726589,"MEAN_MOTION_DOT":0.00044631,"MEAN_MOTION_DDOT":0},{"OBJECT_NAME":"FENGYUN 1C DEB","OBJECT_ID":"1999-025BBM","EPOCH":"2026-03-07T23:41:19.079232","MEAN_MOTION":14.72470246,"ECCENTRICITY":0.01607389,"INCLINATION":99.1941,"RA_OF_ASC_NODE":127.0213,"ARG_OF_PERICENTER":288.175,"MEAN_ANOMALY":194.9848,"EPHEMERIS_TYPE":0,"CLASSIFICATION_TYPE":"U","NORAD_CAT_ID":30971,"ELEMENT_SET_NO":999,"REV_AT_EPOCH":970,"BSTAR":0.00062783413,"MEAN_MOTION_DOT":4.813e-5,"MEAN_MOTION_DDOT":0}]
